{
  "type": "FeatureCollection",
  "features": [
    {
      "type": "Feature",
      "properties": {
        "norad_id": 41877,
        "name": "RESOURCESAT-2A",
        "group": "resource",
        "lat": -54.89848222138731,
        "lon": 67.76861828158152,
        "alt_km": 826.3367836034895,
        "timestamp": "2025-12-11T05:00:25.968519+00:00",
        "meta_object_name": "RESOURCESAT-2A",
        "meta_object_id": "2016-074A",
        "meta_epoch": "2025-12-10T22:30:46.172160",
        "meta_mean_motion": 14.21597746,
        "meta_eccentricity": 0.00011149,
        "meta_inclination": 98.7754,
        "meta_ra_of_asc_node": 54.804,
        "meta_arg_of_pericenter": 264.5592,
        "meta_mean_anomaly": 95.5458,
        "meta_ephemeris_type": 0,
        "meta_classification_type": "U",
        "meta_norad_cat_id": 41877,
        "meta_element_set_no": 999,
        "meta_rev_at_epoch": 46755,
        "meta_bstar": 4.4868153e-05,
        "meta_mean_motion_dot": 5.4e-07,
        "meta_mean_motion_ddot": 0,
        "tle_line1": "1 41877U 16074A   25344.93803440  .00000054  00000+0  44868-4 0  9996",
        "tle_line2": "2 41877  98.7754  54.8040 0001114 264.5592  95.5458 14.21597746467559"
      },
      "geometry": {
        "type": "Point",
        "coordinates": [
          67.76861828158152,
          -54.89848222138731
        ]
      }
    },
    {
      "type": "Feature",
      "properties": {
        "norad_id": 41948,
        "name": "CARTOSAT-2D",
        "group": "resource",
        "lat": 46.243119442943,
        "lon": -129.42927153697184,
        "alt_km": 501.641778755441,
        "timestamp": "2025-12-11T05:00:25.968529+00:00",
        "meta_object_name": "CARTOSAT-2D",
        "meta_object_id": "2017-008A",
        "meta_epoch": "2025-12-10T22:05:59.616960",
        "meta_mean_motion": 15.19222942,
        "meta_eccentricity": 0.00044413,
        "meta_inclination": 97.4383,
        "meta_ra_of_asc_node": 42.4452,
        "meta_arg_of_pericenter": 167.55,
        "meta_mean_anomaly": 192.5845,
        "meta_ephemeris_type": 0,
        "meta_classification_type": "U",
        "meta_norad_cat_id": 41948,
        "meta_element_set_no": 999,
        "meta_rev_at_epoch": 48899,
        "meta_bstar": 0.00029227415,
        "meta_mean_motion_dot": 6.089e-05,
        "meta_mean_motion_ddot": 0,
        "tle_line1": "1 41948U 17008A   25344.92082890  .00006089  00000+0  29227-3 0  9995",
        "tle_line2": "2 41948  97.4383  42.4452 0004441 167.5500 192.5845 15.19222942488999"
      },
      "geometry": {
        "type": "Point",
        "coordinates": [
          -129.42927153697184,
          46.243119442943
        ]
      }
    },
    {
      "type": "Feature",
      "properties": {
        "norad_id": 42063,
        "name": "SENTINEL-2B",
        "group": "resource",
        "lat": -41.57839427062469,
        "lon": -130.01390127257997,
        "alt_km": 796.0726371709461,
        "timestamp": "2025-12-11T05:00:25.968539+00:00",
        "meta_object_name": "SENTINEL-2B",
        "meta_object_id": "2017-013A",
        "meta_epoch": "2025-12-10T22:56:15.505728",
        "meta_mean_motion": 14.30814488,
        "meta_eccentricity": 0.00011444,
        "meta_inclination": 98.5713,
        "meta_ra_of_asc_node": 57.4262,
        "meta_arg_of_pericenter": 93.9792,
        "meta_mean_anomaly": 266.1522,
        "meta_ephemeris_type": 0,
        "meta_classification_type": "U",
        "meta_norad_cat_id": 42063,
        "meta_element_set_no": 999,
        "meta_rev_at_epoch": 45772,
        "meta_bstar": 7.3817572e-05,
        "meta_mean_motion_dot": 1.5e-06,
        "meta_mean_motion_ddot": 0,
        "tle_line1": "1 42063U 17013A   25344.95573502  .00000150  00000+0  73818-4 0  9997",
        "tle_line2": "2 42063  98.5713  57.4262 0001144  93.9792 266.1522 14.30814488457725"
      },
      "geometry": {
        "type": "Point",
        "coordinates": [
          -130.01390127257997,
          -41.57839427062469
        ]
      }
    },
    {
      "type": "Feature",
      "properties": {
        "norad_id": 42767,
        "name": "CARTOSAT-2E",
        "group": "resource",
        "lat": 43.73515013763637,
        "lon": 35.61688344387818,
        "alt_km": 505.86795033080034,
        "timestamp": "2025-12-11T05:00:25.968549+00:00",
        "meta_object_name": "CARTOSAT-2E",
        "meta_object_id": "2017-036C",
        "meta_epoch": "2025-12-10T22:29:25.677600",
        "meta_mean_motion": 15.19289612,
        "meta_eccentricity": 0.00023091,
        "meta_inclination": 97.4556,
        "meta_ra_of_asc_node": 42.5468,
        "meta_arg_of_pericenter": 244.44,
        "meta_mean_anomaly": 115.6596,
        "meta_ephemeris_type": 0,
        "meta_classification_type": "U",
        "meta_norad_cat_id": 42767,
        "meta_element_set_no": 999,
        "meta_rev_at_epoch": 46956,
        "meta_bstar": 0.0003156954,
        "meta_mean_motion_dot": 6.595e-05,
        "meta_mean_motion_ddot": 0,
        "tle_line1": "1 42767U 17036C   25344.93710275  .00006595  00000+0  31570-3 0  9998",
        "tle_line2": "2 42767  97.4556  42.5468 0002309 244.4400 115.6596 15.19289612469562"
      },
      "geometry": {
        "type": "Point",
        "coordinates": [
          35.61688344387818,
          43.73515013763637
        ]
      }
    },
    {
      "type": "Feature",
      "properties": {
        "norad_id": 42920,
        "name": "FORMOSAT-5",
        "group": "resource",
        "lat": 65.53884087327697,
        "lon": -101.85413101259154,
        "alt_km": 722.9694536363459,
        "timestamp": "2025-12-11T05:00:25.968560+00:00",
        "meta_object_name": "FORMOSAT-5",
        "meta_object_id": "2017-049A",
        "meta_epoch": "2025-12-10T21:52:03.351360",
        "meta_mean_motion": 14.51003653,
        "meta_eccentricity": 0.00099519,
        "meta_inclination": 98.2454,
        "meta_ra_of_asc_node": 59.2664,
        "meta_arg_of_pericenter": 301.7689,
        "meta_mean_anomaly": 58.2536,
        "meta_ephemeris_type": 0,
        "meta_classification_type": "U",
        "meta_norad_cat_id": 42920,
        "meta_element_set_no": 999,
        "meta_rev_at_epoch": 43937,
        "meta_bstar": 0.0001086439,
        "meta_mean_motion_dot": 3.86e-06,
        "meta_mean_motion_ddot": 0,
        "tle_line1": "1 42920U 17049A   25344.91114990  .00000386  00000+0  10864-3 0  9998",
        "tle_line2": "2 42920  98.2454  59.2664 0009951 301.7689  58.2536 14.51003653439374"
      },
      "geometry": {
        "type": "Point",
        "coordinates": [
          -101.85413101259154,
          65.53884087327697
        ]
      }
    },
    {
      "type": "Feature",
      "properties": {
        "norad_id": 42969,
        "name": "SENTINEL-5P",
        "group": "resource",
        "lat": -37.76073157247801,
        "lon": -69.31972835803771,
        "alt_km": 833.7277119785213,
        "timestamp": "2025-12-11T05:00:25.968570+00:00",
        "meta_object_name": "SENTINEL-5P",
        "meta_object_id": "2017-064A",
        "meta_epoch": "2025-12-10T13:57:44.045856",
        "meta_mean_motion": 14.1951665,
        "meta_eccentricity": 9.63e-05,
        "meta_inclination": 98.7782,
        "meta_ra_of_asc_node": 283.1851,
        "meta_arg_of_pericenter": 87.8705,
        "meta_mean_anomaly": 272.2581,
        "meta_ephemeris_type": 0,
        "meta_classification_type": "U",
        "meta_norad_cat_id": 42969,
        "meta_element_set_no": 999,
        "meta_rev_at_epoch": 42280,
        "meta_bstar": 0.00010287,
        "meta_mean_motion_dot": 1.73e-06,
        "meta_mean_motion_ddot": 0,
        "tle_line1": "1 42969U 17064A   25344.58175979  .00000173  00000+0  10287-3 0  9998",
        "tle_line2": "2 42969  98.7782 283.1851 0000963  87.8705 272.2581 14.19516650422805"
      },
      "geometry": {
        "type": "Point",
        "coordinates": [
          -69.31972835803771,
          -37.76073157247801
        ]
      }
    },
    {
      "type": "Feature",
      "properties": {
        "norad_id": 42987,
        "name": "SKYSAT-C11",
        "group": "resource",
        "lat": 82.38145196861542,
        "lon": 19.46940123930156,
        "alt_km": 416.4109236317463,
        "timestamp": "2025-12-11T05:00:25.968580+00:00",
        "meta_object_name": "SKYSAT-C11",
        "meta_object_id": "2017-068A",
        "meta_epoch": "2025-12-10T08:26:06.487872",
        "meta_mean_motion": 15.47287048,
        "meta_eccentricity": 9.342e-05,
        "meta_inclination": 97.4145,
        "meta_ra_of_asc_node": 121.7844,
        "meta_arg_of_pericenter": 105.0935,
        "meta_mean_anomaly": 255.0418,
        "meta_ephemeris_type": 0,
        "meta_classification_type": "U",
        "meta_norad_cat_id": 42987,
        "meta_element_set_no": 999,
        "meta_rev_at_epoch": 45394,
        "meta_bstar": 0.00062243654,
        "meta_mean_motion_dot": 0.00031727,
        "meta_mean_motion_ddot": 0,
        "tle_line1": "1 42987U 17068A   25344.35146398  .00031727  00000+0  62244-3 0  9999",
        "tle_line2": "2 42987  97.4145 121.7844 0000934 105.0935 255.0418 15.47287048453944"
      },
      "geometry": {
        "type": "Point",
        "coordinates": [
          19.46940123930156,
          82.38145196861542
        ]
      }
    }
  ]
}